QIANFAN-103             
1 66045U 25233N   26065.90193411  .00000042  00000+0  45822-4 0  9993
2 66045  88.9939  53.5305 0001931  91.5700 268.5672 13.51006246 19370
QIANFAN-104             
1 66046U 25233P   26065.90582970  .00000048  00000+0  56203-4 0  9997
2 66046  88.9943  53.4276 0002098  85.5681 274.5709 13.51010337 19428
QIANFAN-105             
1 66047U 25233Q   26065.83996088  .00000049  00000+0  57049-4 0  9999
2 66047  88.9957  53.2638 0002068  92.1514 267.9874 13.50981579 19524
QIANFAN-106             
1 66048U 25233R   26065.83605385  .00000050  00000+0  58092-4 0  9998
2 66048  88.9925  53.5092 0002390  85.4519 274.6905 13.51005292 19378
QIANFAN-107             
1 66049U 25233S   26065.84431493  .00000048  00000+0  55752-4 0  9994
2 66049  88.9941  53.5246 0001961  90.7598 269.3778 13.51003322 19378
QIANFAN-108             
1 66050U 25233T   26065.84841795  .00000034  00000+0  34271-4 0  9994
2 66050  88.9934  53.5191 0002350  84.9995 275.1424 13.51004778 19379
