[{"OBJECT_NAME":"QIANFAN-103","OBJECT_ID":"2025-233N","EPOCH":"2026-03-06T21:38:47.107104","MEAN_MOTION":13.51006246,"ECCENTRICITY":0.0001931,"INCLINATION":88.9939,"RA_OF_ASC_NODE":53.5305,"ARG_OF_PERICENTER":91.57,"MEAN_ANOMALY":268.5672,"EPHEMERIS_TYPE":0,"CLASSIFICATION_TYPE":"U","NORAD_CAT_ID":66045,"ELEMENT_SET_NO":999,"REV_AT_EPOCH":1937,"BSTAR":4.5822e-5,"MEAN_MOTION_DOT":4.2e-7,"MEAN_MOTION_DDOT":0},{"OBJECT_NAME":"QIANFAN-104","OBJECT_ID":"2025-233P","EPOCH":"2026-03-06T21:44:23.686080","MEAN_MOTION":13.51010337,"ECCENTRICITY":0.0002098,"INCLINATION":88.9943,"RA_OF_ASC_NODE":53.4276,"ARG_OF_PERICENTER":85.5681,"MEAN_ANOMALY":274.5709,"EPHEMERIS_TYPE":0,"CLASSIFICATION_TYPE":"U","NORAD_CAT_ID":66046,"ELEMENT_SET_NO":999,"REV_AT_EPOCH":1942,"BSTAR":5.6203e-5,"MEAN_MOTION_DOT":4.8e-7,"MEAN_MOTION_DDOT":0},{"OBJECT_NAME":"QIANFAN-105","OBJECT_ID":"2025-233Q","EPOCH":"2026-03-06T20:09:32.620032","MEAN_MOTION":13.50981579,"ECCENTRICITY":0.0002068,"INCLINATION":88.9957,"RA_OF_ASC_NODE":53.2638,"ARG_OF_PERICENTER":92.1514,"MEAN_ANOMALY":267.9874,"EPHEMERIS_TYPE":0,"CLASSIFICATION_TYPE":"U","NORAD_CAT_ID":66047,"ELEMENT_SET_NO":999,"REV_AT_EPOCH":1952,"BSTAR":5.7049e-5,"MEAN_MOTION_DOT":4.9e-7,"MEAN_MOTION_DDOT":0},{"OBJECT_NAME":"QIANFAN-106","OBJECT_ID":"2025-233R","EPOCH":"2026-03-06T20:03:55.052640","MEAN_MOTION":13.51005292,"ECCENTRICITY":0.000239,"INCLINATION":88.9925,"RA_OF_ASC_NODE":53.5092,"ARG_OF_PERICENTER":85.4519,"MEAN_ANOMALY":274.6905,"EPHEMERIS_TYPE":0,"CLASSIFICATION_TYPE":"U","NORAD_CAT_ID":66048,"ELEMENT_SET_NO":999,"REV_AT_EPOCH":1937,"BSTAR":5.8092e-5,"MEAN_MOTION_DOT":5.0e-7,"MEAN_MOTION_DDOT":0},{"OBJECT_NAME":"QIANFAN-107","OBJECT_ID":"2025-233S","EPOCH":"2026-03-06T20:15:48.809952","MEAN_MOTION":13.51003322,"ECCENTRICITY":0.0001961,"INCLINATION":88.9941,"RA_OF_ASC_NODE":53.5246,"ARG_OF_PERICENTER":90.7598,"MEAN_ANOMALY":269.3778,"EPHEMERIS_TYPE":0,"CLASSIFICATION_TYPE":"U","NORAD_CAT_ID":66049,"ELEMENT_SET_NO":999,"REV_AT_EPOCH":1937,"BSTAR":5.5752e-5,"MEAN_MOTION_DOT":4.8e-7,"MEAN_MOTION_DDOT":0},{"OBJECT_NAME":"QIANFAN-108","OBJECT_ID":"2025-233T","EPOCH":"2026-03-06T20:21:43.310880","MEAN_MOTION":13.51004778,"ECCENTRICITY":0.000235,"INCLINATION":88.9934,"RA_OF_ASC_NODE":53.5191,"ARG_OF_PERICENTER":84.9995,"MEAN_ANOMALY":275.1424,"EPHEMERIS_TYPE":0,"CLASSIFICATION_TYPE":"U","NORAD_CAT_ID":66050,"ELEMENT_SET_NO":999,"REV_AT_EPOCH":1937,"BSTAR":3.4271e-5,"MEAN_MOTION_DOT":3.4e-7,"MEAN_MOTION_DDOT":0}]
